COSMOS 1743             
1 16719U 86034A   25300.18887095  .00029719  00000+0  54742-3 0  9993
2 16719  82.5385 212.8148 0009413  65.7110 294.5122 15.48957627159521
SL-14 R/B               
1 16792U 86046B   25300.16783551  .00000796  00000+0  89291-4 0  9999
2 16792  82.4846 206.2877 0022057 312.2925  47.6421 14.85415344106584
SL-14 R/B               
1 16882U 86055B   25300.15803522  .00000961  00000+0  10831-3 0  9996
2 16882  82.5195 252.1379 0020426  56.6556 314.2629 14.85451596 99545
AJISAI (EGS)            
1 16908U 86061A   25300.17603799 -.00000092  00000+0  40838-4 0  9995
2 16908  50.0073 143.8989 0011132 308.0911 170.8961 12.44514003451379
COSMOS 1812             
1 17295U 87003A   25300.16031728  .00059675  00000+0  56440-3 0  9993
2 17295  82.4905 342.0814 0002905 193.8739 166.2442 15.66751537123346
SL-14 R/B               
1 17567U 87024B   25300.18234726  .00000886  00000+0  98538-4 0  9998
2 17567  82.5303 218.1804 0018023 348.0878  11.9909 14.85953060 68302
COSMOS 1833             
1 17589U 87027A   25300.13718571 -.00000292  00000+0 -13054-3 0  9997
2 17589  70.9166 246.7393 0020340  38.2378 322.0181 14.13027504991446
SL-16 R/B               
1 17590U 87027B   25300.14552742 -.00000162  00000+0 -56809-4 0  9998
2 17590  71.0031 197.8983 0006745 308.5578  51.4941 14.17142376996463
SL-14 R/B               
1 17912U 87038B   25299.83918649  .00000885  00000+0  10028-3 0  9995
2 17912  82.5017  62.8636 0018003 245.2808 114.6534 14.85186658 59366
COSMOS 1844             
1 17973U 87041A   25300.17214441  .00000149  00000+0  10238-3 0  9991
2 17973  70.8979 315.7920 0032645 225.8889 133.9546 14.14506555984703
SL-14 R/B               
1 18153U 87055B   25299.97405574  .00000770  00000+0  86158-4 0  9996
2 18153  82.4962 115.0621 0022185  95.2475 265.1274 14.85445398 50088
COSMOS 1867             
1 18187U 87060A   25300.14419951  .00000006  00000+0  39952-4 0  9997
2 18187  65.0108 320.6892 0013800 266.5313  93.4193 14.31474402   824
