CCSDS_OMM_VERS = 2.0
CREATION_DATE  = 
ORIGINATOR     = 

OBJECT_NAME    = COSMOS 1743
OBJECT_ID      = 1986-034A
CENTER_NAME    = EARTH
REF_FRAME      = TEME
TIME_SYSTEM    = UTC
MEAN_ELEMENT_THEORY = SGP/SGP4

EPOCH          = 2025-10-27T04:31:58.450080
MEAN_MOTION    = 15.48957627
ECCENTRICITY   = .0009413
INCLINATION    = 82.5385
RA_OF_ASC_NODE = 212.8148
ARG_OF_PERICENTER = 65.7110
MEAN_ANOMALY   = 294.5122

EPHEMERIS_TYPE = 0
CLASSIFICATION_TYPE = U
NORAD_CAT_ID   = 16719
ELEMENT_SET_NO = 999
REV_AT_EPOCH   = 15952
BSTAR          = .54742E-3
MEAN_MOTION_DOT = .29719E-3
MEAN_MOTION_DDOT = 0

CCSDS_OMM_VERS = 2.0
CREATION_DATE  = 
ORIGINATOR     = 

OBJECT_NAME    = SL-14 R/B
OBJECT_ID      = 1986-046B
CENTER_NAME    = EARTH
REF_FRAME      = TEME
TIME_SYSTEM    = UTC
MEAN_ELEMENT_THEORY = SGP/SGP4

EPOCH          = 2025-10-27T04:01:40.988064
MEAN_MOTION    = 14.85415344
ECCENTRICITY   = .0022057
INCLINATION    = 82.4846
RA_OF_ASC_NODE = 206.2877
ARG_OF_PERICENTER = 312.2925
MEAN_ANOMALY   = 47.6421

EPHEMERIS_TYPE = 0
CLASSIFICATION_TYPE = U
NORAD_CAT_ID   = 16792
ELEMENT_SET_NO = 999
REV_AT_EPOCH   = 10658
BSTAR          = .89291E-4
MEAN_MOTION_DOT = .796E-5
MEAN_MOTION_DDOT = 0

CCSDS_OMM_VERS = 2.0
CREATION_DATE  = 
ORIGINATOR     = 

OBJECT_NAME    = SL-14 R/B
OBJECT_ID      = 1986-055B
CENTER_NAME    = EARTH
REF_FRAME      = TEME
TIME_SYSTEM    = UTC
MEAN_ELEMENT_THEORY = SGP/SGP4

EPOCH          = 2025-10-27T03:47:34.243008
MEAN_MOTION    = 14.85451596
ECCENTRICITY   = .0020426
INCLINATION    = 82.5195
RA_OF_ASC_NODE = 252.1379
ARG_OF_PERICENTER = 56.6556
MEAN_ANOMALY   = 314.2629

EPHEMERIS_TYPE = 0
CLASSIFICATION_TYPE = U
NORAD_CAT_ID   = 16882
ELEMENT_SET_NO = 999
REV_AT_EPOCH   = 9954
BSTAR          = .10831E-3
MEAN_MOTION_DOT = .961E-5
MEAN_MOTION_DDOT = 0

CCSDS_OMM_VERS = 2.0
CREATION_DATE  = 
ORIGINATOR     = 

OBJECT_NAME    = AJISAI (EGS)
OBJECT_ID      = 1986-061A
CENTER_NAME    = EARTH
REF_FRAME      = TEME
TIME_SYSTEM    = UTC
MEAN_ELEMENT_THEORY = SGP/SGP4

EPOCH          = 2025-10-27T04:13:29.682336
MEAN_MOTION    = 12.44514003
ECCENTRICITY   = .0011132
INCLINATION    = 50.0073
RA_OF_ASC_NODE = 143.8989
ARG_OF_PERICENTER = 308.0911
MEAN_ANOMALY   = 170.8961

EPHEMERIS_TYPE = 0
CLASSIFICATION_TYPE = U
NORAD_CAT_ID   = 16908
ELEMENT_SET_NO = 999
REV_AT_EPOCH   = 45137
BSTAR          = .40838E-4
MEAN_MOTION_DOT = -.92E-6
MEAN_MOTION_DDOT = 0

CCSDS_OMM_VERS = 2.0
CREATION_DATE  = 
ORIGINATOR     = 

OBJECT_NAME    = COSMOS 1812
OBJECT_ID      = 1987-003A
CENTER_NAME    = EARTH
REF_FRAME      = TEME
TIME_SYSTEM    = UTC
MEAN_ELEMENT_THEORY = SGP/SGP4

EPOCH          = 2025-10-27T03:50:51.412992
MEAN_MOTION    = 15.66751537
ECCENTRICITY   = .0002905
INCLINATION    = 82.4905
RA_OF_ASC_NODE = 342.0814
ARG_OF_PERICENTER = 193.8739
MEAN_ANOMALY   = 166.2442

EPHEMERIS_TYPE = 0
CLASSIFICATION_TYPE = U
NORAD_CAT_ID   = 17295
ELEMENT_SET_NO = 999
REV_AT_EPOCH   = 12334
BSTAR          = .5644E-3
MEAN_MOTION_DOT = .59675E-3
MEAN_MOTION_DDOT = 0

CCSDS_OMM_VERS = 2.0
CREATION_DATE  = 
ORIGINATOR     = 

OBJECT_NAME    = SL-14 R/B
OBJECT_ID      = 1987-024B
CENTER_NAME    = EARTH
REF_FRAME      = TEME
TIME_SYSTEM    = UTC
MEAN_ELEMENT_THEORY = SGP/SGP4

EPOCH          = 2025-10-27T04:22:34.803264
MEAN_MOTION    = 14.85953060
ECCENTRICITY   = .0018023
INCLINATION    = 82.5303
RA_OF_ASC_NODE = 218.1804
ARG_OF_PERICENTER = 348.0878
MEAN_ANOMALY   = 11.9909

EPHEMERIS_TYPE = 0
CLASSIFICATION_TYPE = U
NORAD_CAT_ID   = 17567
ELEMENT_SET_NO = 999
REV_AT_EPOCH   = 6830
BSTAR          = .98538E-4
MEAN_MOTION_DOT = .886E-5
MEAN_MOTION_DDOT = 0

CCSDS_OMM_VERS = 2.0
CREATION_DATE  = 
ORIGINATOR     = 

OBJECT_NAME    = COSMOS 1833
OBJECT_ID      = 1987-027A
CENTER_NAME    = EARTH
REF_FRAME      = TEME
TIME_SYSTEM    = UTC
MEAN_ELEMENT_THEORY = SGP/SGP4

EPOCH          = 2025-10-27T03:17:32.845344
MEAN_MOTION    = 14.13027504
ECCENTRICITY   = .002034
INCLINATION    = 70.9166
RA_OF_ASC_NODE = 246.7393
ARG_OF_PERICENTER = 38.2378
MEAN_ANOMALY   = 322.0181

EPHEMERIS_TYPE = 0
CLASSIFICATION_TYPE = U
NORAD_CAT_ID   = 17589
ELEMENT_SET_NO = 999
REV_AT_EPOCH   = 99144
BSTAR          = -.13054E-3
MEAN_MOTION_DOT = -.292E-5
MEAN_MOTION_DDOT = 0

CCSDS_OMM_VERS = 2.0
CREATION_DATE  = 
ORIGINATOR     = 

OBJECT_NAME    = SL-16 R/B
OBJECT_ID      = 1987-027B
CENTER_NAME    = EARTH
REF_FRAME      = TEME
TIME_SYSTEM    = UTC
MEAN_ELEMENT_THEORY = SGP/SGP4

EPOCH          = 2025-10-27T03:29:33.569088
MEAN_MOTION    = 14.17142376
ECCENTRICITY   = .0006745
INCLINATION    = 71.0031
RA_OF_ASC_NODE = 197.8983
ARG_OF_PERICENTER = 308.5578
MEAN_ANOMALY   = 51.4941

EPHEMERIS_TYPE = 0
CLASSIFICATION_TYPE = U
NORAD_CAT_ID   = 17590
ELEMENT_SET_NO = 999
REV_AT_EPOCH   = 99646
BSTAR          = -.56809E-4
MEAN_MOTION_DOT = -.162E-5
MEAN_MOTION_DDOT = 0

CCSDS_OMM_VERS = 2.0
CREATION_DATE  = 
ORIGINATOR     = 

OBJECT_NAME    = SL-14 R/B
OBJECT_ID      = 1987-038B
CENTER_NAME    = EARTH
REF_FRAME      = TEME
TIME_SYSTEM    = UTC
MEAN_ELEMENT_THEORY = SGP/SGP4

EPOCH          = 2025-10-26T20:08:25.712736
MEAN_MOTION    = 14.85186658
ECCENTRICITY   = .00180037
INCLINATION    = 82.5017
RA_OF_ASC_NODE = 62.8636
ARG_OF_PERICENTER = 245.2808
MEAN_ANOMALY   = 114.6534

EPHEMERIS_TYPE = 0
CLASSIFICATION_TYPE = U
NORAD_CAT_ID   = 17912
ELEMENT_SET_NO = 999
REV_AT_EPOCH   = 5936
BSTAR          = .10028035E-3
MEAN_MOTION_DOT = .885E-5
MEAN_MOTION_DDOT = 0

CCSDS_OMM_VERS = 2.0
CREATION_DATE  = 
ORIGINATOR     = 

OBJECT_NAME    = COSMOS 1844
OBJECT_ID      = 1987-041A
CENTER_NAME    = EARTH
REF_FRAME      = TEME
TIME_SYSTEM    = UTC
MEAN_ELEMENT_THEORY = SGP/SGP4

EPOCH          = 2025-10-27T04:07:53.277024
MEAN_MOTION    = 14.14506555
ECCENTRICITY   = .0032645
INCLINATION    = 70.8979
RA_OF_ASC_NODE = 315.7920
ARG_OF_PERICENTER = 225.8889
MEAN_ANOMALY   = 133.9546

EPHEMERIS_TYPE = 0
CLASSIFICATION_TYPE = U
NORAD_CAT_ID   = 17973
ELEMENT_SET_NO = 999
REV_AT_EPOCH   = 98470
BSTAR          = .10238E-3
MEAN_MOTION_DOT = .149E-5
MEAN_MOTION_DDOT = 0

CCSDS_OMM_VERS = 2.0
CREATION_DATE  = 
ORIGINATOR     = 

OBJECT_NAME    = SL-14 R/B
OBJECT_ID      = 1987-055B
CENTER_NAME    = EARTH
REF_FRAME      = TEME
TIME_SYSTEM    = UTC
MEAN_ELEMENT_THEORY = SGP/SGP4

EPOCH          = 2025-10-26T23:22:38.415936
MEAN_MOTION    = 14.85445398
ECCENTRICITY   = .0022185
INCLINATION    = 82.4962
RA_OF_ASC_NODE = 115.0621
ARG_OF_PERICENTER = 95.2475
MEAN_ANOMALY   = 265.1274

EPHEMERIS_TYPE = 0
CLASSIFICATION_TYPE = U
NORAD_CAT_ID   = 18153
ELEMENT_SET_NO = 999
REV_AT_EPOCH   = 5008
BSTAR          = .86158E-4
MEAN_MOTION_DOT = .77E-5
MEAN_MOTION_DDOT = 0

CCSDS_OMM_VERS = 2.0
CREATION_DATE  = 
ORIGINATOR     = 

OBJECT_NAME    = COSMOS 1867
OBJECT_ID      = 1987-060A
CENTER_NAME    = EARTH
REF_FRAME      = TEME
TIME_SYSTEM    = UTC
MEAN_ELEMENT_THEORY = SGP/SGP4

EPOCH          = 2025-10-27T03:27:38.837664
MEAN_MOTION    = 14.31474402
ECCENTRICITY   = .00138
INCLINATION    = 65.0108
RA_OF_ASC_NODE = 320.6892
ARG_OF_PERICENTER = 266.5313
MEAN_ANOMALY   = 93.4193

EPHEMERIS_TYPE = 0
CLASSIFICATION_TYPE = U
NORAD_CAT_ID   = 18187
ELEMENT_SET_NO = 999
REV_AT_EPOCH   = 82
BSTAR          = .39952E-4
MEAN_MOTION_DOT = .6E-7
MEAN_MOTION_DDOT = 0

